IRIDIUM 155             
1 43573U 18061E   25109.40687998  .00000075  00000+0  19577-4 0  9990
2 43573  86.3982 233.7134 0001931  98.8928 261.2487 14.34218154352622
IRIDIUM 154             
1 43574U 18061F   25109.38785288  .00000082  00000+0  22313-4 0  9999
2 43574  86.3987 233.8340 0002225  94.9336 265.2113 14.34218175352662
IRIDIUM 163             
1 43575U 18061G   25108.88044547  .00000203  00000+0  65271-4 0  9995
2 43575  86.3984 233.9748 0002107  91.4994 268.6443 14.34217918352560
IRIDIUM 156             
1 43576U 18061H   25108.85507206  .00000503  00000+0  17271-3 0  9998
2 43576  86.3985 233.9918 0001931 100.9765 259.1648 14.34214817352542
IRIDIUM 164             
1 43577U 18061J   25108.41743700  .00000087  00000+0  24165-4 0  9990
2 43577  86.3984 234.2085 0002350 100.3686 259.7774 14.34218079352532
IRIDIUM 159             
1 43578U 18061K   25109.43224922  .00000221  00000+0  71847-4 0  9993
2 43578  86.3983 233.7301 0002352  93.4726 266.6739 14.34219574352647
IRIDIUM 180             
1 43922U 19002A   25108.73406239  .00000083  00000+0  22550-4 0  9990
2 43922  86.4022 171.0046 0002243  92.4075 267.7378 14.34217911328197
IRIDIUM 176             
1 43923U 19002B   25109.24440127  .00001435  00000+0  22362-3 0  9994
2 43923  86.6145 170.7905 0001921  87.0265 273.1172 14.72264062336877
IRIDIUM 168             
1 43924U 19002C   25108.72771734  .00000297  00000+0  98974-4 0  9996
2 43924  86.4025 171.0727 0002264  95.4143 264.7311 14.34217420328133
IRIDIUM 173             
1 43925U 19002D   25108.78480216  .00000080  00000+0  21531-4 0  9990
2 43925  86.4022 170.9553 0002095  92.2646 267.8789 14.34218319328132
IRIDIUM 169             
1 43926U 19002E   25109.17070959  .00000675  00000+0  21434-3 0  9995
2 43926  86.4290 202.3572 0000762 111.4847 248.6432 14.38608024329264
IRIDIUM 172             
1 43927U 19002F   25108.22031163  .00000452  00000+0  15423-3 0  9999
2 43927  86.4023 171.1972 0002467  88.8597 271.2882 14.34217697328054
IRIDIUM 175             
1 43928U 19002G   25109.10331819  .00000477  00000+0  71713-4 0  9991
2 43928  86.1475 126.7411 0002040 116.6595 243.4830 14.72241213336845
IRIDIUM 171             
1 43929U 19002H   25109.17804323  .00000062  00000+0  15219-4 0  9993
2 43929  86.4031 171.0566 0002425 103.1472 256.9995 14.34218205328185
IRIDIUM 170             
1 43930U 19002J   25109.25058413  .00001350  00000+0  21015-3 0  9996
2 43930  86.6146 170.7930 0002072 102.4828 257.6621 14.72256365336883
IRIDIUM 167             
1 43931U 19002K   25109.17169958  .00000111  00000+0  32582-4 0  9991
2 43931  86.4020 170.8192 0002213 107.0262 253.1176 14.34218719328183
IRIDIUM 181             
1 56726U 23068S   25108.87992690  .00000633  00000+0  18206-3 0  9992
2 56726  86.4527 233.9852 0002802 110.6334 249.5168 14.43314657101232
IRIDIUM 177             
1 56727U 23068T   25108.64929242  .00002192  00000+0  28497-3 0  9996
2 56727  86.2011 170.3762 0002388 102.0448 258.1040 14.80229217103564
IRIDIUM 174             
1 56728U 23068U   25108.70277404  .00001693  00000+0  26206-3 0  9991
2 56728  86.6149 171.1350 0001978  93.0294 267.1149 14.72673407103560
IRIDIUM 178             
1 56729U 23068V   25108.77358020  .00002073  00000+0  26942-3 0  9993
2 56729  86.6608 202.6089 0002523  94.7230 265.4280 14.80231737103589
IRIDIUM 179             
1 56730U 23068W   25109.30903922  .00002591  00000+0  33757-3 0  9999
2 56730  86.6841 210.0789 0002055 100.3541 259.7913 14.80226128103665
